LAST NAME,FIRST NAME,EMAIL,ZIPCODE,CITY,STATE,ADDRESS,PHONE
williams,dana,geggierose27@jumpstartlab.com,23188,williamsburg,va,228 charter house lane,540-421-9000
nguyen,marta,nfanda.kleintop@jumpstartlab.com,23220,richmond,va,1100 w. broad st #428,703-400-4000
beneway,dan,uevys@jumpstartlab.com,22903,charlottesville,va,3720 country ln,434-409-6000
ramirez,courtney,lxluchy@jumpstartlab.com,23116,mechanicsville,va,10362 aspen grove terr,804-514-0000
donnellan,eco,wvbesl@jumpstartlab.com,23173,university of richmond,va,"ur 3040, 28 westhampton way",858-472-9000
shen,maria,ireneka@jumpstartlab.com,22306,alexandria,va,7101 vantage drive,703-765-5000
kaufer,greta,gqazyak@jumpstartlab.com,23238,richmond,va,1606 mara drive,804-357-4000
hadley,lily,icffany@jumpstartlab.com,24060,blacksburg,va,1205-e north main street,703-434-9000
alt,marc,hieehugger90@jumpstartlab.com,23103,manakin sabot,va,106 birch circle,804-784-5000
suley,patricia,wysey.roe@jumpstartlab.com,22204,arlington,va,5101 s. 11th st.,202-270-3000
villa,amanda,yq@jumpstartlab.com,22903,charlottesville,va,"308 foxhaven farm, reservoire rd.",434-806-4000
ludwig,sandra,unarey@jumpstartlab.com,22901,charlottesville,va,1028 locust ave,540-905-5000
martin,valerie,rwolfson@jumpstartlab.com,22205,arlington,va,6105 11th road north,202-247-8000
esterman,lisa,pkmmerman11@jumpstartlab.com,20171,herndon,va,2756 copper creek rd.,703-380-0000
butcavage,lindsay,ddangasser@jumpstartlab.com,22903,charlottesville,va,1310 oxford pl,434-960-8000
head,b,ucin@jumpstartlab.com,24141,radford,va,1101 c lawrence st,434-249-5000
worthy,bonnie,nckhai1l@jumpstartlab.com,22046,falls church,va,300 e broad st,571-205-8000
manglik,pedro,dbgibson@jumpstartlab.com,23718,williamsburg,va,csu 3130/ p.o. box 8793,301-775-9000
santiago,shelby,ojred.duval@jumpstartlab.com,22903,charlottesville,va,428 c brandon ave,571-484-3000
rice,corey,gnhmid.48@jumpstartlab.com,22904,charlottesville,va,242 tuttle,240-678-7000
swanson,melissa,vrsalt@jumpstartlab.com,22182,vienna,va,8505 ashgrove plantation cir,703-915-5000
cohen,emily,yvhetz07@jumpstartlab.com,24340,glade spring,va,31051 cambridge ave,276-944-7000
jolles,amanda,wwwrencemacdonald@jumpstartlab.com,24327,emory,va,box 9001 #386,540-598-3000
cockram,marcela,toep9690@jumpstartlab.com,24327,emory,va,"ehc box 325, p.o.box 900",276-206-5000
castillo,andrew,yyenoughsaid@jumpstartlab.com,23173,university of richmond,va,28 westhampton way,248-891-3000
doe,sarah,vo_tigner@jumpstartlab.com,23173,university of richmond,va,28 westhampton way,908-418-6000
peterson,laura,wdurs@jumpstartlab.com,23173,university of richmond,va,28 westhampton way,201-317-4000
mcglinchey,lindsey,rkice.graff@jumpstartlab.com,23173,university of richmond,va,28 westhampton way,609-457-3000
traft,rachel,ocearns@jumpstartlab.com,23173,university of richmond,va,28 westhampton way,978-807-5000
hinsch,kathleen,teder1el@jumpstartlab.com,23173,university of richmond,va,28 westhampton way,630-885-0000
krill,sara,epltifolia@jumpstartlab.com,23173,university of richmond,va,28 westhampton way,540-250-0000
jennings,laura,tcaber@jumpstartlab.com,23173,university of richmond,va,28 westhampton way,757-630-6000
ridgeway,trisha,bqmarcucci@jumpstartlab.com,23226,university of richmond,va,5904 three chopt rd.,908-337-6000
arginteanu,alex,jk322906@jumpstartlab.com,23173,university of richmond,va,28 westhampton way,410-353-4000
morales,mari,meczia15@jumpstartlab.com,23173,university of richmond,va,28 westhampton way,646-573-1000
gerber,laurel,sqphilips891@jumpstartlab.com,23229,richmond,va,1705 dresden rd. apt a,804-426-9000
tremblay,gabe,pcoocheever09@jumpstartlab.com,23221,richmond,va,2904 apt 1 park ave,904-477-9000
sarkar,kelsey,ubopkin@jumpstartlab.com,23173,university of richmond,va,28 westhampton way,203-326-1000
maggetti,hanna,iwrentic@jumpstartlab.com,23173,university of richmond,va,28 westhampton way,404-388-7000
booker,cassandra,bkcka1dm@jumpstartlab.com,23173,university of richmond,va,28 westhampton way,804-614-5000
puccio,meghan,cvl2@jumpstartlab.com,23173,university of richmond,va,28 westhampton way,224-639-2000
wiley,nora,nmerario@jumpstartlab.com,24060,blacksburg,va,451 east roanoke st apt. e,804-921-3000
bombasaro-brady,rachel,pfarkas@jumpstartlab.com,22903,charlottesville,va,"301 15th st. nw, apt. 4002",703-201-1000
miller,shannon,jofell05@jumpstartlab.com,24326,emory,va,9001 garnand dr,703-819-9000
morales,nathan,ebssssssssssssss@jumpstartlab.com,23508,norfolk,va,1915 b escadrille pt,919-457-6000
houser,chelsea,rtra.wentworth@jumpstartlab.com,24153,salem,va,221 college ln.,954-234-7000
mikusa,juliana,otfordy08@jumpstartlab.com,24153,salem,va,221 college ln.,--
adler,bria,hge6@jumpstartlab.com,24153,salem,va,221 college lane,540-797-0000
pagnoni,x,xnp69@jumpstartlab.com,24153,salem,va,campus box 455 roanoke college,404-218-5000
roos,mira,fynnyns@jumpstartlab.com,24153,salem,va,roanoke college,404-218-5000
plotsky,jennifer,luchael_glassman@jumpstartlab.com,24153,salem,va,221 college lane,540-797-0000
schwartzman,jonathan,utodriguez001@jumpstartlab.com,24153,salem,va,roanoke college,404-218-5000
keene,erin,ptblack26@jumpstartlab.com,24153,salem,va,221 college lane,540-797-0000
godwin,miriam,bpdeabler@jumpstartlab.com,24153,salem,va,roanoke college,404-218-5000
jimenez,arthur,wmuarles@jumpstartlab.com,24153,salem,va,221 college lane,540-797-0000
nordstrom,yoa,voummus@jumpstartlab.com,24153,salem,va,roanoke college,404-218-5000
penniman,sara,mnbdullah@jumpstartlab.com,24153,salem,va,221 college lane,540-797-0000
henmueller,david,caw5034@jumpstartlab.com,24153,salem,va,roanoke college,404-218-5000
schall,libby,lskern@jumpstartlab.com,24153,salem,va,221 college lane,540-797-0000
kosakowski,liesel,ggolk@jumpstartlab.com,24153,salem,va,roanoke college,404-218-5000
rohlf,mike,fhloni@jumpstartlab.com,24153,salem,va,221 college lane,540-797-0000
kroon vandiest,christopher,brthonn.bates@jumpstartlab.com,24153,salem,va,roanoke college,404-218-5000
bigwood,john,vpm.odonnell@jumpstartlab.com,24153,salem,va,roanoke college,404-218-5000
pessemier,daria,meeisler@jumpstartlab.com,24153,salem,va,221 college lane,540-797-0000
waterman,joe,elline2@jumpstartlab.com,24153,salem,va,roanoke college,404-218-5000
renaud,kathleen,kpdie.lansdale@jumpstartlab.com,24153,salem,va,roanoke college,404-218-5000
nazdin,jane,nghaf189@jumpstartlab.com,24153,salem,va,roanoke college,404-218-5000
cohen-fuentes,david,vvansdale11@jumpstartlab.com,24153,salem,va,roanoke college,404-218-5000
gillard,may,nellyann@jumpstartlab.com,24153,salem,va,221 college lane,954-234-7000
dawe,shane,boendez@jumpstartlab.com,24153,salem,va,roanoke college,404-218-5000
johnston,keiichiro,vswling.43@jumpstartlab.com,24153,salem,va,roanoke college,404-218-5000
pizzo,natalie,rebabe124@jumpstartlab.com,24153,salem,va,221 college lane,954-234-7000
perry,gavin,cgnturechica14@jumpstartlab.com,24153,salem,va,221 college lane,954-234-7000
hung,candice,lpdwards08@jumpstartlab.com,24153,salem,va,221 college lane,954-234-7000
dahlberg,scott,pcm30@jumpstartlab.com,24153,salem,va,221 college lane,954-234-7000
malone,michelle,scerback@jumpstartlab.com,22151,springfield,va,5533 belfast place,703-336-9000
heil,elizabeth,ndampardo@jumpstartlab.com,22801,harrisonburg,va,883 d port republic road,757-353-9000
bowden,caitlin,boerek682@jumpstartlab.com,22801,harrisonburg,va,883 d port republic road,757-353-9000
akebrand,karolina,njabe@jumpstartlab.com,22801,harrisonburg,va,883 d port republic road,757-353-9000
spencer,carroll,destoneking@jumpstartlab.com,22801,harrisonburg,va,883 d port republic road,757-353-9000
costello,holly,rlhnstonellie@jumpstartlab.com,22801,harrisonburg,va,883 d port republic road,757-353-9000
pradhan,blair,yurdt4@jumpstartlab.com,22801,harrisonburg,va,883 d port republic road,757-353-9000
tinker,jacqueline,ebcmanus@jumpstartlab.com,22801,harrisonburg,va,883 d port republic road,757-353-9000
holloway,andrew,cqfrgrassroots@jumpstartlab.com,22801,harrisonburg,va,883 d port republic road,757-353-9000
meaney,leny,seensix@jumpstartlab.com,22801,harrisonburg,va,883 d port republic road,757-353-9000
kline,rachel,xversing@jumpstartlab.com,22801,harrisonburg,va,883 d port republic road,757-353-9000
nichols,ian,qnc32@jumpstartlab.com,22801,harrisonburg,va,883 d port republic road,757-353-9000
porter,paul,ssrdenj@jumpstartlab.com,22801,harrisonburg,va,883 d port republic road,757-353-9000
petty,kaeli,lswebst@jumpstartlab.com,22801,harrisonburg,va,883 d port republic road,757-353-9000
goodman,ondine,hftamm@jumpstartlab.com,22801,harrisonburg,va,883 d port republic road,757-353-9000
steger-hoey,hallie,ykjoeyt@jumpstartlab.com,22801,harrisonburg,va,883 d port republic road,757-353-9000
shamel,uncw2,iplentz@jumpstartlab.com,22801,harrisonburg,va,883 d port republic road,757-353-9000
jaroszewicz,casey,kyephenwayland90@jumpstartlab.com,22801,harrisonburg,va,883 d port republic road,757-353-9000
lovell,erica,bgtir1tm@jumpstartlab.com,22801,harrisonburg,va,883 d port republic road,757-353-9000
walker,brittni,stysliwiec@jumpstartlab.com,22801,harrisonburg,va,883 d port republic road,757-353-9000
o'brien,holly,xxbrew@jumpstartlab.com,22801,harrisonburg,va,883 d port republic road,757-353-9000
olson,ema,fjrcy_a@jumpstartlab.com,22904,charlottesville,va,229 roberta gwathmey,434-566-4000
tate,ken,ftizabethminer@jumpstartlab.com,22801,harrisonburg,va,883 d port republic road,757-353-9000
cress,kate,pbnique.woolnough@jumpstartlab.com,22801,harrisonburg,va,883 d port republic road,757-353-9000
ziegler,hala,asmcgrath@jumpstartlab.com,22801,harrisonburg,va,883 d port republic road,757-353-9000
doe,abel,jxeara_l@jumpstartlab.com,23185,williamsburg,va,csu 4364; 110 sadler center,540-447-0000
becenti,will,ctscham@jumpstartlab.com,22801,harrisonburg,va,883 d port republic road,757-353-9000
snitzer,emma,puabelle.rozendaal@jumpstartlab.com,22801,harrisonburg,va,883 d port republic road,757-353-9000
atwood,ethan,qqwolf@jumpstartlab.com,22801,harrisonburg,va,883 d port republic road,757-353-9000
krause,kevin,qnigren@jumpstartlab.com,22801,harrisonburg,va,883 d port republic road,757-353-9000
henderson,danielle,emcmurt@jumpstartlab.com,22801,harrisonburg,va,883 d port republic road,757-353-9000
vargas,emma,jvam_the_butterfly@jumpstartlab.com,22801,harrisonburg,va,883 d port republic road,757-353-9000
kadlec,tina,fgphill@jumpstartlab.com,23185,williamsburg,va,"223 virginia avenue, apartment a",703-915-7000
rosengard,elizabeth,uwwes1ka@jumpstartlab.com,24060,blacksburg,va,401k berryfield ln.,410-279-7000
llop,phoebe,iop001@jumpstartlab.com,23185,williamsburg,va,116 braxton court,703-625-4000
jacobi,john,tyneskaroluk@jumpstartlab.com,23185,williamsburg,va,600 ukrop way,703-625-4000
bordeaux,evy,igonieba@jumpstartlab.com,23185,williamsburg,va,223 virgina ave,757-784-8000
adams,sierra,pcohnsoo@jumpstartlab.com,23185,williamsburg,va,606 conway drive apt. 201,707-975-1000
blank,gabriela,yqonrose@jumpstartlab.com,23185,williamsburg,va,3908 george mason,707-975-1000
chin,lauren,nubert.goodwin@jumpstartlab.com,23185,williamsburg,va,600 ukrop way,609-802-4000
michonski,amy,oxsegand@jumpstartlab.com,23185,williamsburg,va,600 ukrop way,703-919-3000
yarychkivska,matt,koeese@jumpstartlab.com,23185,williamsburg,va,600 ukrop way,571-232-2000
bradshaw,elizabeth,hsrcury@jumpstartlab.com,23185,williamsburg,va,csu 1302 po box 8793,540-424-3000
hofsiss,noelle,meahcake@jumpstartlab.com,22801,harrisonburg,va,883 d port republic road,757-353-9000
jack,kerry,hgria.k.oldiges@jumpstartlab.com,22801,harrisonburg,va,883 d port republic road,757-353-9000
cerimele,andrew,fyweaver@jumpstartlab.com,22801,harrisonburg,va,883 d port republic road,757-353-9000
colburn,jesse,qorlydb@jumpstartlab.com,24333,galax,va,144 fairway oaks dr.,276-233-0000
begay,john,anhevalier@jumpstartlab.com,22213,arlington,va,2515 n. winchester st,703-231-5000
gleason,julia,kdstineisn@jumpstartlab.com,24327,emory,va,emory & henry college #885,276-698-4000
flagg,julia,acwojtalewi@jumpstartlab.com,22302,alexandria,va,802 parkway terrace,703-623-6000
forrester,szor-danner,duergen@jumpstartlab.com,24609,cedar bluff,va,124 alfalfa lane,276-202-2000
ostrin,eddie,ekterruptingstarfish@jumpstartlab.com,22844,new market,va,159 clark st.,301-404-7000
davis,tania,rfcard.lee@jumpstartlab.com,23186,williamsburg,va,101 sadler center csu 5546,301-760-0000
wilson,layne,ndelcher@jumpstartlab.com,24060,blacksburg,va,1205-e north main street,703-434-9000
hammerl,josh,imbutler@jumpstartlab.com,24060,blacksburg,va,1204f university terrace,301-325-7000
ferrara,natalie,tfslie.tourneville@jumpstartlab.com,24060,null,va,null,240-305-6000
lettow,taylor,bfchel@jumpstartlab.com,24060,null,va,null,540-660-1000
wilmot,elana,dunerjee_p@jumpstartlab.com,24060,null,va,null,703-314-9000
koch,charles,vtn1@jumpstartlab.com,24060,null,va,null,540-818-9000
shafer,one,ueoe@jumpstartlab.com,24060,null,va,null,757-650-2000
neal,alicia,sgwombel@jumpstartlab.com,24060,null,va,null,571-214-8000
muoio,abbe,jxieeg5@jumpstartlab.com,22181,vienna,va,2755 hill rd,571-232-8000
hardman,wes,ocelina.ip@jumpstartlab.com,24060,null,va,null,301-325-7000
kidder,john,gmk1@jumpstartlab.com,23185,williamsburg,va,"1203 jamestown road, apt b4",540-447-0000
lodico,jennifer austin,mikkkkkkkkkkkk@jumpstartlab.com,24060,null,va,null,804-347-3000
morgan-davie,lauren,dpb25@jumpstartlab.com,24060,blacksburg,va,1401k seneca dr.,703-314-1000
bates,bruno,iisvob08@jumpstartlab.com,24060,blacksburg,va,1280 north main street,804-920-4000
skinner,kim,cfpppppeeeeeeeeeeeey@jumpstartlab.com,22207,arlington,va,2443 n. powhatan st.,540-447-0000
jacobs,derek,hxephoenixrises@jumpstartlab.com,24501,lynchburg,va,1501 lakeside dr box 2068,302-858-7000
brandenburg,alex,obll30@jumpstartlab.com,24501,lynchburg,va,1501 lakeside dr,302-858-7000
nicaise,eric,vaisher@jumpstartlab.com,24501,lynchburg,va,1501 lakeside dr,302-858-7000
hurd,nate,pnsilfies@jumpstartlab.com,24501,lynchburg,va,1501 lakeside dr,302-858-7000
enz,cara,fcolan@jumpstartlab.com,24501,lynchburg,va,1501 lakeside dr,302-858-7000
tran,jesse,onbertpmartini@jumpstartlab.com,24501,lynchburg,va,1501 lakeside dr,302-858-7000
heir,aram,vrbum35@jumpstartlab.com,24501,lynchburg,va,1501 lakeside dr,302-858-7000
o'leary,julio,plorkins@jumpstartlab.com,24501,lynchburg,va,1501 lakeside dr,302-858-7000
bogardus,kevin,nuerbe1@jumpstartlab.com,24501,lynchburg,va,1501 lakeside dr,302-858-7000
roseen,magical,quancesadavila@jumpstartlab.com,24501,lynchburg,va,1501 lakeside dr,302-858-7000
howland,claire,mtough@jumpstartlab.com,24501,lynchburg,va,1501 lakeside dr,302-858-7000
johnson,jessica,aaeimenstoll@jumpstartlab.com,24501,lynchburg,va,1501 lakeside dr,302-858-7000
bayer,sarah,jfshaw@jumpstartlab.com,24501,lynchburg,va,1501 lakeside dr,302-858-7000
desanctis,john,vngallag@jumpstartlab.com,24501,lynchburg,va,1501 lakeside dr,302-858-7000
goughary,jordan,gqaak@jumpstartlab.com,24501,lynchburg,va,1501 lakeside dr,302-858-7000
schulz,christopher,nfa2@jumpstartlab.com,24501,lynchburg,va,1501 lakeside dr,302-858-7000
welborn,suzy,ujiseri@jumpstartlab.com,24501,lynchburg,va,1501 lakeside dr,302-858-7000
tiller,damon,dxmall52@jumpstartlab.com,24501,lynchburg,va,1501 lakeside dr,302-858-7000
doe,taylor,jplly@jumpstartlab.com,24501,lynchburg,va,1501 lakeside dr,302-858-7000
johnson,ben,xyxsh@jumpstartlab.com,24501,lynchburg,va,1501 lakeside dr,302-858-7000
pollak,ellen,hripp1re@jumpstartlab.com,24501,lynchburg,va,1501 lakeside dr,302-858-7000
roberts,eric,pbriscsullivan@jumpstartlab.com,24501,lynchburg,va,1501 lakeside dr,302-858-7000
williamson,preston,degwyn@jumpstartlab.com,24501,lynchburg,va,1501 lakeside dr,302-858-7000
burch,sophia,igchmidt@jumpstartlab.com,22030,fairfax,va,4400 univeristy drive,860-395-8000
shankland,surron,xcf_laueraw@jumpstartlab.com,22030,fairfax,va,4400 university drive,860-395-8000
poitevin,emily,xrlvem01@jumpstartlab.com,22030,fairfax,va,4400 university drive,860-395-8000
savely,stephanie,sxlsi@jumpstartlab.com,22030,fairfax,va,4400 univeristy drive,860-395-8000
wyckoff,dylan,jun.desanctis@jumpstartlab.com,22030,fairfax,va,4400 university drive,860-395-8000
carter,jessica,xewle1nl@jumpstartlab.com,23173,university of richmond,va,28 westhampton way,410-271-3000
kumpf,sara,kyitlinfinneran@jumpstartlab.com,23173,university of richmond,va,28 westhampton way,215-266-2000
cui,kyleen,iwamque89@jumpstartlab.com,22030,fairfax,va,440 university drive,860-395-8000
watson,holly,rveatrice318@jumpstartlab.com,22030,fairfax,va,4400 university drive,860-395-8000
wilson,maura,uchares@jumpstartlab.com,23173,university of richmond,va,28 westhampton way,215-498-0000
heile,molly,brisa.ahmadian@jumpstartlab.com,22030,fairfax,va,4400 university drive,860-395-8000
watson,erin,nuchaelstinson@jumpstartlab.com,23173,university of richmond,va,28 westhampton way,716-983-4000
hall,sarah,quarmas2@jumpstartlab.com,22030,fairfax,va,4400 university drive,860-395-8000
schroder,sarah,il114706@jumpstartlab.com,22025,montclair,va,15437 beachview drive,845-224-9000
portney,lindsey,nwchel.bergstein@jumpstartlab.com,24060,blacksburg,va,1009 montgomery street,540-335-3000
inman,michael,cfvecharnuska@jumpstartlab.com,22030,fairfax,va,4400 university drive,860-395-8000
ferry,tatiana,ekinkwinek@jumpstartlab.com,24060,null,va,null,--
moore,matt,byhamilt@jumpstartlab.com,24060,blacksburg,va,1211 i university terr,703-999-7000
rehm,kirsten,lgtty.ries@jumpstartlab.com,24060,null,va,null,571-217-0000
greenfield,frances,xek42@jumpstartlab.com,24060,null,va,null,540-421-4000
westervelt,christy,msbsaunders@jumpstartlab.com,24060,null,va,null,804-543-4000
hogsett,jessica,irencerv@jumpstartlab.com,24060,null,va,null,703-625-7000
rosenbaum,robin,pm@jumpstartlab.com,24060,null,va,null,757-407-1000
mcneal,eliza,gwmy.ray@jumpstartlab.com,24060,blacksburg,va,1043 west ambler johnston,571-334-5000
prendergast,catie,rtssicadawe@jumpstartlab.com,24060,null,va,null,703-895-2000
gethin-jones,molly,iasiegle07@jumpstartlab.com,24060,null,va,null,434-989-9000
ballou,chauneey,vflferkn@jumpstartlab.com,23185,williamsburg,va,226 rolfe rd,540-447-0000
hedges,dave,ofliottklinger@jumpstartlab.com,24060,null,va,null,703-508-7000
zlatev,neva,ptaserh@jumpstartlab.com,24060,null,va,null,770-789-9000
juan,jason,rh152306@jumpstartlab.com,24060,blacksburg,va,136 main campbell,434-509-7000
skwirz,kat,dxather.burch@jumpstartlab.com,24060,blacksburg,va,461 e. roanoke st. apt. g,703-618-9000
smith,selenia,dnnvig1@jumpstartlab.com,22401,fredericksburg,va,1701 college ave.,540-539-5000
elles,sarah,gvwacoordinator@jumpstartlab.com,24060,null,va,null,571-241-1000
mcgonagle,andreas,vw894@jumpstartlab.com,22401,fredericksburg,va,1701 college avenue,571-338-5000
two,maile,nqarvey@jumpstartlab.com,22401,fredericksburg,va,1701 college avenue,703-927-9000
morris,chuck,jqroble@jumpstartlab.com,22401,fredericksburg,va,1701 college ave.,757-589-3000
lippold,katrina,uohassel@jumpstartlab.com,22203,arlington,va,3901 5th st. n apt 3,703-627-5000
sawtelle,sam,jkp3084@jumpstartlab.com,24060,blacksburg,va,2800 foxhunt ln apt. a,540-761-7000
wheeler,emma,rcjfkjfjjjjj@jumpstartlab.com,23185,williamsburg,va,226 rolfe road,703-400-6000
liuzzi,carling,yqlianne.norman@jumpstartlab.com,24060,null,va,null,434-238-0000
han,leah,omtt.castelli@jumpstartlab.com,22401,fredericksburg,va,1701 college ave,--
detjen,x,ksrding_l@jumpstartlab.com,24060,null,va,null,804-683-0000
tomaro,laura,fkrryz@jumpstartlab.com,24060,null,va,null,919-616-3000
walder-hoge,jesse,wmuick@jumpstartlab.com,24060,null,va,null,703-851-7000
marciano,kenneth,nttokes@jumpstartlab.com,24060,null,va,null,434-664-8000
sommers,devin,jfs5632@jumpstartlab.com,22401,fredericksburg,va,1701 college ave.,--
shpino,mary,nrr11388@jumpstartlab.com,24060,null,va,null,703-209-8000
hart,laurel,mmck12@jumpstartlab.com,22401,fredericksburg,va,1701 college ave,--
scoville-weaver,elena,ssm5129@jumpstartlab.com,22401,fredericksburg,va,1701 college ave.,804-399-0000
wooddell,amanda,jfamerrandall@jumpstartlab.com,22401,fredericksburg,va,1701 college ave.,757-358-1000
chimes,dan,ndiolino@jumpstartlab.com,22401,fredericksburg,va,1701 college avenue,571-228-4000
wong,dordt,tjlan_ther@jumpstartlab.com,23185,williamsburg,va,8 james sq,703-209-8000
igo,cameron,hkantt6@jumpstartlab.com,24060,null,va,null,434-987-1000
wesely,rachel,wqexandervalen@jumpstartlab.com,24595,sweet briar,va,p.o box 835,248-310-1000
splawski,janel,ftyle@jumpstartlab.com,24595,sweet briar,va,sweet briar,248-310-1000
spalding,gwyneth,sybicks@jumpstartlab.com,24595,sweet briar,va,sweet briar,248-310-1000
boynton,madeline,gnny.uhl@jumpstartlab.com,24595,sweet briar,va,sweet briar,248-310-1000
begay,cianna,ecj2@jumpstartlab.com,24595,sweet briar,va,sweet briar,248-310-1000
last name,sarah,ldhnt@jumpstartlab.com,24595,sweet briar,va,sweet briar,248-310-1000
lanzet,kathleen,ojeimg@jumpstartlab.com,24595,sweet briar,va,sweet briar,248-310-1000
lkjlkjklj,brandon,piedward@jumpstartlab.com,24595,sweet briar,va,sweet briar,248-310-1000
axt,jessica,pp1106@jumpstartlab.com,24595,sweet briar,va,sweet briar,248-310-1000
siddiqi,k,baronminnick@jumpstartlab.com,24595,sweet briar,va,sweet briar,248-310-1000
richards,dan,knnielle_lavoie@jumpstartlab.com,24595,sweet briar,va,sweet briar,248-310-1000
schultz,anna,pe@jumpstartlab.com,24595,sweet briar,va,sweet briar,248-310-1000
magill,zo,loakhod1@jumpstartlab.com,24595,sweet briar,va,sweet briar,248-310-1000
dade,emily,cdarrison@jumpstartlab.com,24595,sweet briar,va,sweet briar,248-310-1000
kelly,riley,ccronan.iww@jumpstartlab.com,23187,williamsburg,va,"732 scotland st, apt 5",347-645-2000
clark,marigrace,dfll23@jumpstartlab.com,22201,arlington,va,1300 north hudson st.,757-618-0000
anderson,kb,xehn2514@jumpstartlab.com,22903,charlottesville,va,3720 country lane,859-492-0000
stibitz,danielle,knostello@jumpstartlab.com,22401,fredericksburg,va,"box 1923, 1701 college ave",804-516-7000
doyle,dirk,olowan@jumpstartlab.com,24060,null,va,null,757-289-8000
martini,holly,nfhndoe21@jumpstartlab.com,24060,null,va,null,443-472-1000
mcdermitt,michelle,pdander8@jumpstartlab.com,24060,null,va,null,315-416-4000
donahue,lindsay,syomanov@jumpstartlab.com,24060,null,va,null,540-454-2000
yeskoo,chris,aaheney@jumpstartlab.com,24060,null,va,null,908-303-5000
last_name,stephan,hln-erik_tesdal@jumpstartlab.com,24060,null,va,null,434-531-2000
baird,sebastian,ygichlin@jumpstartlab.com,24060,null,va,null,703-589-6000
weinstein,james s,eii.schneiderman@jumpstartlab.com,24060,null,va,null,540-470-0000
wynn,rajarshi,ovwolfe11@jumpstartlab.com,24060,null,va,null,804-873-1000
finney,josh,lfrlson.208@jumpstartlab.com,24060,null,va,null,571-643-1000
becker,ronnie,lneely@jumpstartlab.com,24060,null,va,null,--
doe,gemini,tmrrrrrrrrrrrrrrrrg@jumpstartlab.com,24060,null,va,null,--
hastings,lila,ohtk@jumpstartlab.com,24060,null,va,null,--
bolinger,teen,ydh84@jumpstartlab.com,24060,null,va,null,--
saud,anna,ylmartinez50@jumpstartlab.com,24503,lynchburg,va,2500 rivermont avenue,919-741-3000
stephenson,jacqueline,wbark05@jumpstartlab.com,24503,lynchburg,va,2500 rivermont avenue,435-512-1000
black,sasha,kghardik@jumpstartlab.com,24503,lynchburg,va,2500 rivermont avenue,770-324-6000
anway,kaylen,qyusciano@jumpstartlab.com,24060,null,va,null,--
staver,charlotte,qemall@jumpstartlab.com,24503,lynchburg,va,2500 rivermont avenue,540-250-2000
nesseth,amy,vo@jumpstartlab.com,24060,null,va,null,--
posner,lorena,cfnuse@jumpstartlab.com,24060,null,va,null,--
richmond,phoenix,dmdbugz@jumpstartlab.com,24060,null,va,null,--
cheney,brenna,ceenyoureyes@jumpstartlab.com,24060,null,va,null,--
subramanian,emily,cuowgw01@jumpstartlab.com,24503,lynchburg,va,2500 rivermont avenue,434-947-8000
archer,cory,qnnathan.murphy@jumpstartlab.com,24060,null,va,null,--
thompson,david,xxamonds@jumpstartlab.com,24060,null,va,null,--
bryant,virginia,ahura_a@jumpstartlab.com,24060,null,va,null,--
nankam,renee,eaisanoldfriendofmine@jumpstartlab.com,24503,lynchburg,va,2500 rivermont avenue,360-739-5000
mcmanus,rachel,ycg542@jumpstartlab.com,24060,null,va,null,--
fickers,kaitlin,jeckenzie.bergstrom@jumpstartlab.com,24060,null,va,null,--
goldberg,deirdre,gbleg5@jumpstartlab.com,24060,null,va,null,--
pell,vanessa,ajunt@jumpstartlab.com,22401,fredericksburg,va,1701 college avenue,540-539-5000
martin,taylor,joaldvog@jumpstartlab.com,24503,lynchburg,va,2500 rivermont avenue,336-978-0000
romanov,brad,qjchelgbishop@jumpstartlab.com,24060,null,va,null,--
jones,robb,flozelhgl@jumpstartlab.com,24060,null,va,null,--
armstrong,rachel,fsrenson@jumpstartlab.com,24503,lynchburg,va,2500 rivermont avenue,703-508-5000
gross,anneka,gcz.veazey@jumpstartlab.com,24060,null,va,null,--
gilchrist,maggie,maam.dagavarian@jumpstartlab.com,24503,lynchburg,va,2500 rivermont avenue,434-947-8000
toney,jane,ftitus@jumpstartlab.com,24060,null,va,null,--
null,eric,cpavis@jumpstartlab.com,24060,null,va,null,--
hughes,michael,lbymezykguitars@jumpstartlab.com,24060,null,va,null,--
ferris,caitlin,axhey@jumpstartlab.com,24503,lynchburg,va,2500 rivermont avenue,541-223-3000
oberholzer,jon,iirucnal@jumpstartlab.com,24060,null,va,null,--
wentworth,leigh-ann,xohl3730@jumpstartlab.com,24327,"emory, va",va,emory and henry college # 664,828-260-2000
leugers,diana,cbhaughnessy@jumpstartlab.com,24503,lynchburg,va,2500 rivermont avenue,434-947-8000
fenton,maeve,xqulis88@jumpstartlab.com,24503,lynchburg,va,2500 rivermont avenue,703-965-8000
slaughter,spencer,bvp456@jumpstartlab.com,24503,lynchburg,va,2500 rivermont avenue,703-965-8000
atkinson,lira,iwrssona@jumpstartlab.com,24503,lynchburg,va,2500 rivermont avenue,540-497-3000
fuchs,devin,ccbin.bellows@jumpstartlab.com,24503,lynchburg,va,2500 rivermont avenue,434-455-5000
uris,rachel,sjhronis6@jumpstartlab.com,24503,lynchburg,va,2500 rivermont avenue,512-922-0000
meyers,danny,jroh1989@jumpstartlab.com,22314,alexandria,va,1201 braddock pl.,718-810-4000
francis,xie,pieffers@jumpstartlab.com,22030,fairfax,va,4400 university drive,860-395-8000
edelman,megan,vdianaalisjahbana@jumpstartlab.com,22030,fairfax,va,4400 university drive,860-395-8000
reliford,randy,glryn.a.wilson@jumpstartlab.com,20190,reston,va,11100 wildlife center dr,734-887-7000
castillo,ariella,fqiza.oldach@jumpstartlab.com,20190,reston,va,11100 wildlife center dr,703-438-6000
rosenberg,mark,ikindy@jumpstartlab.com,20190,reston,va,11100 wildlife center dr,703-438-6000
brucker,meredith,dwcole.leung@jumpstartlab.com,20190,reston,va,11100 wildlife center dr,703-438-6000
gladwin,sarah,tmlion@jumpstartlab.com,20190,reston,va,11100 wildlife center dr,703-438-6000
buitelaar,christine,mmmiller@jumpstartlab.com,20190,reston,va,11100 wildlife center dr,703-438-6000
stokes,etana,wxasic2@jumpstartlab.com,20190,reston,va,11100 wildlife center dr,703-438-6000
neal,morgan,dqte@jumpstartlab.com,20190,reston,va,11100 wildlife center dr,703-438-6000
starbuck,ali,pbyrossman@jumpstartlab.com,20190,reston,va,11100 wildlife center dr,703-438-6000
perez,jake,nitippie08@jumpstartlab.com,20190,reston,va,11100 wildlife center dr,703-438-6000
o'donnell,tara,tsmercer@jumpstartlab.com,20190,reston,va,11100 wildlife center dr,703-438-6000
carter,sarah,kgete20c@jumpstartlab.com,20190,reston,va,11100 wildlife center dr,734-887-7000
matos,elias,cdhall07@jumpstartlab.com,22903,charlottesville,va,102 shamrock rd. apt. 9,571-228-2000
burnett,tim,gebaker@jumpstartlab.com,23187,williamsburg,va,po box 8795,703-463-7000
sherman,xueying,leshu19@jumpstartlab.com,22904,charlottesville,va,443 watson house,571-228-2000
schaeffer,dominic,ovlkereh@jumpstartlab.com,22904,charlottesville,va,323 watson house,571-228-2000
dolgos,brendan,hcochal@jumpstartlab.com,22904,charlottesville,va,124 roberta gwathmey,571-228-2000
korte,ilana,hrrcoronc@jumpstartlab.com,22903,charlottesville,va,425 foxdale lane,571-228-2000
james,catherine,jfrma.loretta@jumpstartlab.com,22904,charlottesville,va,468 apt. 7a lambeth,571-228-2000
stodola,kate,lst6@jumpstartlab.com,22904,charlottesville,va,212b lewis,571-228-2000
kozelka,krystal,oiyeon.malott@jumpstartlab.com,22904,charlottesville,va,20 shea house,571-228-2000
ferrelli,yaicha,gnoneymo@jumpstartlab.com,22904,charlottesville,va,229 roberta gwathmey,571-228-2000
mass,alyssa,cpelkumo@jumpstartlab.com,22904,charlottesville,va,120 roberta gwathmey,571-228-2000
ries,caitlin,nyoup@jumpstartlab.com,00000,williamsburg,va,csu 3556 po box 8793,858-717-1000
mehdi,isabel,sqn.maclellan@jumpstartlab.com,00000,arlington,va,"1111 army navy drive, apt. 526",612-961-0000
wightman,james,vpedro2@jumpstartlab.com,23185,williamsburg,va,802 westgate cir,865-776-6000
lin,amanda,pxchelhorn@jumpstartlab.com,00000,virginia beach,va,613 nicklaus ct.,757-374-2000
deranger,william,xmaudia.randrup@jumpstartlab.com,23606,newport news,va,1000 university place/ su box # 2786,703-232-3000
dhakal,naomi,yikchin1@jumpstartlab.com,23186,williamsburg,va,csu 3201 po box 8795,571-643-6000
petryk,amy,xeershon@jumpstartlab.com,20147,ashburn,va,20085 blackwolf run place,703-201-9000
herman,brian,ratrove_wg@jumpstartlab.com,20147,ashburn,va,44281 gloucester parkway,571-252-2000
baird,chris,torcshap@jumpstartlab.com,23185,williamsburg,va,103 cary street,757-241-0000
xx,julia,rdhalfin@jumpstartlab.com,20147,ashburn,va,44281 gloucester parkway,571-252-2000
malagodi,melanie,biristineel@jumpstartlab.com,20147,ashburn,va,44281 gloucester parkway,571-252-2000
wilson,kasey,mvnia.a.singh@jumpstartlab.com,20147,ashburn,va,44281 gloucester parkway,571-252-2000
oh,nic,lwhndoe19@jumpstartlab.com,20147,ashburn,va,44281 gloucester parkway,571-252-2000
seager,charlotte,dukshanker@jumpstartlab.com,20147,ashburn,va,44281 gloucester parkway,571-252-2000
krueger,andrew,phiel@jumpstartlab.com,20147,ashburn,va,44281 gloucester parkway,571-252-2000
gregory,betty,wmyle09@jumpstartlab.com,20147,ashburn,va,44281 gloucester parkway,571-252-2000
fuller,joshua,leneandy@jumpstartlab.com,20147,ashburn,va,44281 gloucester parkway,571-252-2000
widener,chester,uueck7@jumpstartlab.com,23185,williamsburg,va,1444b n. mount vernon,540-447-0000
neuschatz,ruby,lthan_silverstein@jumpstartlab.com,22124,oakton,va,10856 flowerstone st,703-314-5000
daniel,kara,fraldschmidt15@jumpstartlab.com,23454,virginia beach,va,1315 parkside pl.,757-449-3000
sanford,julie,ibrkpaglierani@jumpstartlab.com,24327,emory,va,p.o. box 117,276-944-5000
kemboi,dan,xbosner@jumpstartlab.com,24595,sweet briar,va,134 chapel road,256-337-5000
hire,james,mfnalexj@jumpstartlab.com,22079,lorton,va,6810 tiddle way,202-546-7000
allen,jen,ntarley@jumpstartlab.com,22032,fairfax,va,4012 pickstone drive,111-111-1000
flores,kim,kcookewelty@jumpstartlab.com,22124,oakton,va,2786 marshall lake dr.,111-111-1000
petrescu,sabrina,qulary.a.dolstad@jumpstartlab.com,22046,falls church,va,1111 jackson ct,111-111-1000
perkins,michelle,evs9714@jumpstartlab.com,11111,xxx,va,xxx,111-111-1000
sheikh,kathryn,uxemaitre@jumpstartlab.com,11111,x,va,x,111-111-1000
schweikert,jane,kbrdba8@jumpstartlab.com,11111,x,va,x,111-111-1000
bennett,whitney,has88@jumpstartlab.com,11111,x,va,x,111-111-1000
washington,becky,hntendre@jumpstartlab.com,11111,x,va,x,111-111-1000
zhao,devin,frnke3b@jumpstartlab.com,23187,williamsburg,va,csu 4117 p.o. box 8793,757-270-2000
jasinski,angela,etaham10@jumpstartlab.com,23187,williamsburg,va,csu 1157,516-375-8000
khan,pamela,fflosteriii@jumpstartlab.com,22401,fredericksburg,va,1301 college avenue,703-300-4000
skibbie,alexander,krte.katelally@jumpstartlab.com,23187,williamsburg,va,csu 5679 p.o. box 8793,--
miles,samuel,lxray@jumpstartlab.com,23185,williamsburg,va,802 westgate circle,865-776-6000
dragich,katrina,mstthew.dahlhausen@jumpstartlab.com,24595,sweet briar,va,134 chapel rd,678-938-4000
null,elizabeth,hwarlisle001@jumpstartlab.com,20815,williamsburg,va,710 college terrace,202-365-4000
lemos-wade,karel,qbithcecily@jumpstartlab.com,02815,williamsburg,va,710 college terrace,847-385-8000
pinkerton,jordan,jgair@jumpstartlab.com,23185,williamsburg,va,400 rolfe road apartment a,804-943-2000
cheslin,kate,cgelner@jumpstartlab.com,23185,williamsburg,va,1206 b jamestown road,610-308-7000
pelishek,michele,noina.ws@jumpstartlab.com,23185,williamsburg,va,732 scotland street apt. 1,732-299-1000
goyal,mitchell,vkg22@jumpstartlab.com,23187,williamsburg,va,"1104 conway dr, apt 104",248-703-5000
pudlock,heather,ukrolina.fucikova@jumpstartlab.com,23185,williamsburg,va,"csu 5546, po box 8793",301-760-0000
womble,jarymar,exef.lapp@jumpstartlab.com,20190,reston,va,11100 wildlife center dr,404-876-8000
bookhout,iain,qmkane2@jumpstartlab.com,24595,sweet brair,va,p.o. box 225,912-536-9000
kittner,john,vfvaruss_campbell@jumpstartlab.com,23185,williamsburg,va,csu 3873 po box 8793,703-862-0000
winson,lizzie,mpte_stoughton@jumpstartlab.com,20190,reston,va,11100 wildlife center dr,703-438-6000
abbs,alexander,ordixon@jumpstartlab.com,23185,williamsburg va,va,csu 5805 po box 8793,609-234-3000
pywell,austin,fje.chadcarson+8@jumpstartlab.com,23185,williamsburg,va,csu 4364 po box 8793,757-407-4000
jaquish,melinda,egmonje@jumpstartlab.com,20190,reston,va,11100 wildlife center dr.,800-822-9000
owen,valentina,cvs.speth@jumpstartlab.com,20190,reston,va,11100 wildlife center dr,800-822-9000
flagg,geneva,hftylczak@jumpstartlab.com,20190,reston,va,11100 wildlife center dr,800-822-9000
legron,claire,dic1@jumpstartlab.com,20190,reston,va,11100 wildlife center dr,800-822-9000
greenwood,eliana,fviohan@jumpstartlab.com,20190,reston,va,11100 wildlife center dr,800-822-9000
rixey,michelle,iwngyen.l.nguyen@jumpstartlab.com,22625,cross junction,va,209 greenleaf drive,202-518-0000
rodriguez,brittany,oyendan@jumpstartlab.com,22625,cross junction,va,209 greenleaf drive,540-888-3000
gilmore,jennifer,eaaw@jumpstartlab.com,23834,colonial heights,va,1016 avon court,804-931-8000
shayler,nick,yvp2r@jumpstartlab.com,23185,lexington,va,2 frank parsons way,757-869-2000
trento,diane,eyohanclaar@jumpstartlab.com,24450,lexington,va,4 frank parsons way,540-319-0000
jones,katherine,uhlen@jumpstartlab.com,24450,lexington,va,2 frank parsons way,757-869-2000
smith,dara,fwoga_trout@jumpstartlab.com,24450,lexington,va,205 w washington st,703-217-3000
foggo,anya,gjoe3@jumpstartlab.com,22801,harrisonburg,va,883 d port republic road,757-353-9000
f,lydia,gggabrie@jumpstartlab.com,24450,lexington,va,205 w washington st,804-512-0000
blair,renee,tnit@jumpstartlab.com,22801,harrisonburg,va,883 d port republic road,757-353-9000
lopez,s,sump_m@jumpstartlab.com,22801,harrisonburg,va,883 d port republic road,757-353-9000
howson,amanda,xpacey@jumpstartlab.com,22801,harrisonburg,va,883 d port republic road,757-353-9000
adler,brita,bia80407@jumpstartlab.com,22310,alexandria,va,6202 rose hill dr apt 3a,202-321-8000
pentz,rebecca,ohgutu@jumpstartlab.com,22315,alexandria,va,6405 silver ridge cir,703-606-0000
